IRIDIUM 106             
1 41917U 17003A   25201.48571946  .00000045  00000+0  88989-5 0  9992
2 41917  86.3952 227.0868 0001810  93.7801 266.3601 14.34217754445665
IRIDIUM 103             
1 41918U 17003B   25201.82187784  .00000039  00000+0  69585-5 0  9998
2 41918  86.3952 226.8472 0002296  76.1750 283.9701 14.34217741445742
IRIDIUM 109             
1 41919U 17003C   25201.82822060  .00000081  00000+0  21727-4 0  9994
2 41919  86.3953 226.8985 0002420  88.2475 271.8998 14.34218022445725
IRIDIUM 102             
1 41920U 17003D   25201.51743340  .00000063  00000+0  15374-4 0  9996
2 41920  86.3952 226.9591 0002427  92.6411 267.5063 14.34218033445745
IRIDIUM 105             
1 41921U 17003E   25201.90677973  .00000078  00000+0  20925-4 0  9992
2 41921  86.3991 195.2745 0002324  83.6931 276.4529 14.34218083447654
IRIDIUM 104             
1 41922U 17003F   25201.80919309  .00000073  00000+0  19116-4 0  9999
2 41922  86.3953 226.8747 0002605  84.1585 275.9908 14.34218034445771
IRIDIUM 114             
1 41923U 17003G   25201.46669252  .00000085  00000+0  23292-4 0  9994
2 41923  86.3952 227.0021 0002230  84.5207 275.6243 14.34218058445706
IRIDIUM 108             
1 41924U 17003H   25201.70428692  .00000047  00000+0  96848-5 0  9999
2 41924  86.3985 195.2585 0002201  92.9697 267.1750 14.34217988447610
